{
  "type": "FeatureCollection",
  "features": [
    {
      "type": "Feature",
      "properties": {
        "norad_id": 29961,
        "name": "FENGYUN 1C DEB",
        "group": "fengyun-1c-debris",
        "lat": 1.0180947170090897,
        "lon": 64.63290597863103,
        "alt_km": 812.7642900470009,
        "timestamp": "2025-12-22T20:43:46.121397+00:00",
        "meta_object_name": "FENGYUN 1C DEB",
        "meta_object_id": "1999-025KK",
        "meta_epoch": "2025-12-22T06:24:57.514176",
        "meta_mean_motion": 14.26223387,
        "meta_eccentricity": 0.0073862,
        "meta_inclination": 98.9484,
        "meta_ra_of_asc_node": 243.8634,
        "meta_arg_of_pericenter": 277.0554,
        "meta_mean_anomaly": 82.2229,
        "meta_ephemeris_type": 0,
        "meta_classification_type": "U",
        "meta_norad_cat_id": 29961,
        "meta_element_set_no": 999,
        "meta_rev_at_epoch": 98445,
        "meta_bstar": 0.00017814455,
        "meta_mean_motion_dot": 3.92e-06,
        "meta_mean_motion_ddot": 0,
        "tle_line1": "1 29961U 99025KK  25356.26733234  .00000392  00000+0  17814-3 0  9990",
        "tle_line2": "2 29961  98.9484 243.8634 0073862 277.0554  82.2229 14.26223387984450"
      },
      "geometry": {
        "type": "Point",
        "coordinates": [
          64.63290597863103,
          1.0180947170090897
        ]
      }
    },
    {
      "type": "Feature",
      "properties": {
        "norad_id": 29962,
        "name": "FENGYUN 1C DEB",
        "group": "fengyun-1c-debris",
        "lat": 17.355626377081137,
        "lon": 1.9707165889078537,
        "alt_km": 949.0105388434122,
        "timestamp": "2025-12-22T20:43:46.121408+00:00",
        "meta_object_name": "FENGYUN 1C DEB",
        "meta_object_id": "1999-025KL",
        "meta_epoch": "2025-12-22T12:50:18.486816",
        "meta_mean_motion": 14.07164058,
        "meta_eccentricity": 0.01101556,
        "meta_inclination": 98.7682,
        "meta_ra_of_asc_node": 4.4165,
        "meta_arg_of_pericenter": 193.5032,
        "meta_mean_anomaly": 319.619,
        "meta_ephemeris_type": 0,
        "meta_classification_type": "U",
        "meta_norad_cat_id": 29962,
        "meta_element_set_no": 999,
        "meta_rev_at_epoch": 97135,
        "meta_bstar": 9.1282602e-05,
        "meta_mean_motion_dot": 1.19e-06,
        "meta_mean_motion_ddot": 0,
        "tle_line1": "1 29962U 99025KL  25356.53493619  .00000119  00000+0  91283-4 0  9991",
        "tle_line2": "2 29962  98.7682   4.4165 0110155 193.5032 319.6190 14.07164058971356"
      },
      "geometry": {
        "type": "Point",
        "coordinates": [
          1.9707165889078537,
          17.355626377081137
        ]
      }
    },
    {
      "type": "Feature",
      "properties": {
        "norad_id": 29963,
        "name": "FENGYUN 1C DEB",
        "group": "fengyun-1c-debris",
        "lat": -61.55438360401309,
        "lon": -101.83525659509225,
        "alt_km": 767.1994693317929,
        "timestamp": "2025-12-22T20:43:46.121418+00:00",
        "meta_object_name": "FENGYUN 1C DEB",
        "meta_object_id": "1999-025KM",
        "meta_epoch": "2025-12-22T09:31:19.092000",
        "meta_mean_motion": 14.29492287,
        "meta_eccentricity": 0.0051034,
        "meta_inclination": 98.9986,
        "meta_ra_of_asc_node": 240.6743,
        "meta_arg_of_pericenter": 274.0495,
        "meta_mean_anomaly": 141.0608,
        "meta_ephemeris_type": 0,
        "meta_classification_type": "U",
        "meta_norad_cat_id": 29963,
        "meta_element_set_no": 999,
        "meta_rev_at_epoch": 98281,
        "meta_bstar": 0.00060667804,
        "meta_mean_motion_dot": 1.524e-05,
        "meta_mean_motion_ddot": 0,
        "tle_line1": "1 29963U 99025KM  25356.39674875  .00001524  00000+0  60668-3 0  9994",
        "tle_line2": "2 29963  98.9986 240.6743 0051034 274.0495 141.0608 14.29492287982816"
      },
      "geometry": {
        "type": "Point",
        "coordinates": [
          -101.83525659509225,
          -61.55438360401309
        ]
      }
    },
    {
      "type": "Feature",
      "properties": {
        "norad_id": 29964,
        "name": "FENGYUN 1C DEB",
        "group": "fengyun-1c-debris",
        "lat": -60.31857219694205,
        "lon": -146.4682332634222,
        "alt_km": 839.9797095810136,
        "timestamp": "2025-12-22T20:43:46.121428+00:00",
        "meta_object_name": "FENGYUN 1C DEB",
        "meta_object_id": "1999-025KN",
        "meta_epoch": "2025-12-22T12:27:43.887744",
        "meta_mean_motion": 14.02764622,
        "meta_eccentricity": 0.0130829,
        "meta_inclination": 98.3703,
        "meta_ra_of_asc_node": 198.2448,
        "meta_arg_of_pericenter": 241.706,
        "meta_mean_anomaly": 117.0856,
        "meta_ephemeris_type": 0,
        "meta_classification_type": "U",
        "meta_norad_cat_id": 29964,
        "meta_element_set_no": 999,
        "meta_rev_at_epoch": 96454,
        "meta_bstar": 0.00060485797,
        "meta_mean_motion_dot": 9.68e-06,
        "meta_mean_motion_ddot": 0,
        "tle_line1": "1 29964U 99025KN  25356.51925796  .00000968  00000+0  60486-3 0  9999",
        "tle_line2": "2 29964  98.3703 198.2448 0130829 241.7060 117.0856 14.02764622964541"
      },
      "geometry": {
        "type": "Point",
        "coordinates": [
          -146.4682332634222,
          -60.31857219694205
        ]
      }
    },
    {
      "type": "Feature",
      "properties": {
        "norad_id": 29965,
        "name": "FENGYUN 1C DEB",
        "group": "fengyun-1c-debris",
        "lat": 23.824715143169882,
        "lon": 175.2172234251413,
        "alt_km": 952.1279617596547,
        "timestamp": "2025-12-22T20:43:46.121439+00:00",
        "meta_object_name": "FENGYUN 1C DEB",
        "meta_object_id": "1999-025KP",
        "meta_epoch": "2025-12-22T06:18:30.426624",
        "meta_mean_motion": 13.95779238,
        "meta_eccentricity": 0.01458445,
        "meta_inclination": 98.9629,
        "meta_ra_of_asc_node": 350.6365,
        "meta_arg_of_pericenter": 42.0091,
        "meta_mean_anomaly": 334.5998,
        "meta_ephemeris_type": 0,
        "meta_classification_type": "U",
        "meta_norad_cat_id": 29965,
        "meta_element_set_no": 999,
        "meta_rev_at_epoch": 96409,
        "meta_bstar": 0.00015625225,
        "meta_mean_motion_dot": 1.91e-06,
        "meta_mean_motion_ddot": 0,
        "tle_line1": "1 29965U 99025KP  25356.26285216  .00000191  00000+0  15625-3 0  9991",
        "tle_line2": "2 29965  98.9629 350.6365 0145844  42.0091 334.5998 13.95779238964099"
      },
      "geometry": {
        "type": "Point",
        "coordinates": [
          175.2172234251413,
          23.824715143169882
        ]
      }
    },
    {
      "type": "Feature",
      "properties": {
        "norad_id": 29966,
        "name": "FENGYUN 1C DEB",
        "group": "fengyun-1c-debris",
        "lat": 10.451520105175597,
        "lon": -157.11065831212986,
        "alt_km": 790.6944696292203,
        "timestamp": "2025-12-22T20:43:46.121449+00:00",
        "meta_object_name": "FENGYUN 1C DEB",
        "meta_object_id": "1999-025KQ",
        "meta_epoch": "2025-12-22T12:15:32.532480",
        "meta_mean_motion": 14.2576982,
        "meta_eccentricity": 0.00393144,
        "meta_inclination": 99.491,
        "meta_ra_of_asc_node": 204.2759,
        "meta_arg_of_pericenter": 317.6396,
        "meta_mean_anomaly": 42.1747,
        "meta_ephemeris_type": 0,
        "meta_classification_type": "U",
        "meta_norad_cat_id": 29966,
        "meta_element_set_no": 999,
        "meta_rev_at_epoch": 98182,
        "meta_bstar": 0.00036215762,
        "meta_mean_motion_dot": 8.16e-06,
        "meta_mean_motion_ddot": 0,
        "tle_line1": "1 29966U 99025KQ  25356.51079320  .00000816  00000+0  36216-3 0  9990",
        "tle_line2": "2 29966  99.4910 204.2759 0039314 317.6396  42.1747 14.25769820981827"
      },
      "geometry": {
        "type": "Point",
        "coordinates": [
          -157.11065831212986,
          10.451520105175597
        ]
      }
    },
    {
      "type": "Feature",
      "properties": {
        "norad_id": 29967,
        "name": "FENGYUN 1C DEB",
        "group": "fengyun-1c-debris",
        "lat": 71.48894362424117,
        "lon": -78.66697641047442,
        "alt_km": 856.628105361574,
        "timestamp": "2025-12-22T20:43:46.121459+00:00",
        "meta_object_name": "FENGYUN 1C DEB",
        "meta_object_id": "1999-025KR",
        "meta_epoch": "2025-12-21T00:57:00.253728",
        "meta_mean_motion": 14.23643193,
        "meta_eccentricity": 0.00765352,
        "meta_inclination": 98.8651,
        "meta_ra_of_asc_node": 71.7104,
        "meta_arg_of_pericenter": 268.349,
        "meta_mean_anomaly": 214.5753,
        "meta_ephemeris_type": 0,
        "meta_classification_type": "U",
        "meta_norad_cat_id": 29967,
        "meta_element_set_no": 999,
        "meta_rev_at_epoch": 97340,
        "meta_bstar": 0.0010590585,
        "meta_mean_motion_dot": 2.443e-05,
        "meta_mean_motion_ddot": 0,
        "tle_line1": "1 29967U 99025KR  25355.03958627  .00002443  00000+0  10591-2 0  9998",
        "tle_line2": "2 29967  98.8651  71.7104 0076535 268.3490 214.5753 14.23643193973406"
      },
      "geometry": {
        "type": "Point",
        "coordinates": [
          -78.66697641047442,
          71.48894362424117
        ]
      }
    }
  ]
}